C/2025 W1 (Sankovich),e,79.8006,95.8909,250.6442,6762,0.0000018,0.99938322,0.0000,02/17.7325/2025,2000,g  9.7,4.0
# From MPC191592
C/2025 W2 (ATLAS),e,94.7096,90.8460,41.0406,26.95627,0.0070423,0.94608454,1.3462,06/17.0/2026,2000,g 17.9,4.0
# From MPC194197
P/2025 W3 (Kresken),e,9.7407,60.0101,311.4301,2.547001,0.2424714,0.18102129,110.7501,06/17.0/2026,2000,g 17.2,4.0
# From MPC194197
P/2025 W4 (PANSTARRS),e,1.2977,237.0902,172.2952,2.579781,0.2378646,0.21156279,60.7786,06/17.0/2026,2000,g 17.5,4.0
# From MPEC 2026-KB8
C/2025 X1 (PANSTARRS),e,36.9540,95.6312,85.6884,33.70391,0.0050371,0.86150267,359.1069,06/17.0/2026,2000,g 10.2,4.0
# From MPEC 2026-L50
C/2025 Y1 (ATLAS),e,14.5564,166.5505,124.2928,7256,0.0000016,0.99964136,0.0000,10/14.0270/2027,2000,g  6.3,4.0
# From MPEC 2026-L50
P/2025 Y2 (PANSTARRS),e,16.5873,177.4771,344.7197,4.017130,0.1224138,0.24150523,23.4880,06/17.0/2026,2000,g 13.3,4.0
# From MPC194197
C/2025 Y3 (PANSTARRS),h,01/13.7107/2026,89.5484,272.9668,219.3875,1.000611,2.227372,2000,17.0,4.0
# From MPC194197
C/2026 A1 (MAPS),e,144.4955,7.9038,86.3550,172.0248,0.0004368,0.99996669,0.0000,04/04.6001/2026,2000,g 15.6,4.0
# From MPEC 2026-L50
C/2026 A2 (Bok),e,82.3059,206.5890,155.9361,817.0560,0.0000422,0.99762827,0.0000,12/22.3545/2026,2000,g 10.7,4.0
# From MPEC 2026-GD5
C/2026 A3 (PANSTARRS),h,09/27.5249/2027,157.4184,306.9997,238.6519,1.006407,4.819665,2000,9.0,4.0
# From MPEC 2026-L52
C/2026 AZ17 (Bok),e,36.2336,149.9743,146.9123,64.84618,0.0018875,0.96186871,359.6995,06/17.0/2026,2000,g 12.2,4.0
# From MPEC 2026-H88
C/2026 B2 (Sun-Gao),e,59.5796,234.6368,47.2984,512.2411,0.0000850,0.99749290,0.0000,01/10.1154/2026,2000,g  9.7,4.0
# From MPEC 2026-L50
C/2026 B3 (PANSTARRS),e,100.8337,346.2550,205.2212,1185,0.0000242,0.99509191,0.0000,05/05.2243/2027,2000,g  7.7,4.0
# From MPEC 2026-L50
C/2026 C1 (Tsuchinshan),e,99.5855,3.6204,310.7187,18916,0.0000004,0.99993908,0.0000,11/06.9431/2028,2000,g  4.4,4.0
# From MPC194198
P/2026 C2 (PANSTARRS),e,7.4013,190.5600,11.0245,3.552085,0.1472241,0.31425780,354.8595,06/17.0/2026,2000,g 14.9,4.0
# From MPEC 2026-L50
A/2026 E1,e,108.1818,188.3167,344.8427,386.0795,0.0001299,0.99248309,0.0000,05/13.5585/2026,2000,g 12.0,2.0
# From MPEC 2026-K60
C/2026 H1 (PANSTARRS),h,06/13.4728/2026,115.5936,178.7278,349.6492,1.000734,6.083956,2000,9.0,4.0
# From MPEC 2026-L50
C/2026 H2 (Leonard),h,03/17.2374/2026,148.6505,5.4568,111.5368,1.001990,4.546410,2000,10.1,4.0
# From MPEC 2026-K33
C/2026 H3 (Bok),h,05/22.9768/2026,142.5672,352.4964,98.4925,1.003419,7.728232,2000,8.9,4.0
# From MPEC 2026-L50
C/2026 J1 (PANSTARRS),e,73.1156,100.3570,129.5042,25.46317,0.0076707,0.90088284,359.8979,06/17.0/2026,2000,g 14.1,4.0
# From MPEC 2026-L49
C/2026 L1 (PANSTARRS),e,67.2610,130.5048,200.5746,755.5426,0.0000475,0.99354091,0.0000,04/11.2820/2027,2000,g  9.2,4.0
# From MPEC 2026-LA4
C/2026 L2 (PANSTARRS),e,55.5508,283.6708,0.0521,4105,0.0000037,0.99917181,0.0000,04/10.0591/2026,2000,g 13.3,4.0
# From MPC191592
1P/Halley,e,162.1798,59.3524,112.2521,17.85836,0.0130600,0.96801888,192.3964,06/17.0/2026,2000,g  5.5,3.2
# From MPC191592
2P/Encke,e,11.3480,334.0195,187.2844,2.217806,0.2984138,0.84730000,288.9092,06/17.0/2026,2000,g 11.5,6.0
# From AJ 76, 1135
3D-A/Biela,e,7.2149,276.6842,192.1512,3.552265,0.1472130,0.76708285,82.7127,06/17.0/2026,2000,g 11.0,6.0
# From AJ 76, 1135
3D-B/Biela,e,7.8793,276.2030,192.2704,3.541311,0.1478965,0.76783508,52.3449,06/17.0/2026,2000,g 11.0,6.0
# From MPC191593
4P/Faye,e,7.9986,192.8883,207.1633,3.831083,0.1314382,0.57584385,229.0328,06/17.0/2026,2000,g  8.0,6.0
# From MPC191593
6P/d'Arrest,e,19.5064,138.9569,178.0336,3.497428,0.1506888,0.61244758,261.4638,06/17.0/2026,2000,g  7.5,16.0
# From MPC194198
7P/Pons-Winnecke,e,21.8758,92.6656,174.3558,3.337203,0.1616703,0.66020318,289.7201,06/17.0/2026,2000,g 10.0,6.0
# From MPC191593
8P/Tuttle,e,54.9800,270.1880,207.4786,5.706692,0.0722982,0.82075188,126.7203,06/17.0/2026,2000,g  8.0,8.0
# From MPC191593
9P/Tempel,e,10.4903,66.8901,184.5560,3.303922,0.1641192,0.46579583,260.8093,06/17.0/2026,2000,g  5.5,10.0
# From MPEC 2026-L50
10P/Tempel,e,12.0273,117.7976,195.4676,3.065018,0.1836769,0.53744528,351.5298,06/17.0/2026,2000,g  5.0,10.0
# From MPC191593
11P/Tempel-Swift-LINEAR,e,14.4305,238.8525,168.0698,3.282307,0.1657431,0.57729392,335.8118,06/17.0/2026,2000,g 17.0,4.0
# From MPC191593
12P/Pons-Brooks,e,74.1616,255.8647,199.0306,17.27257,0.0137299,0.95474126,10.8028,06/17.0/2026,2000,g  5.0,6.0
# From MPC191593
13P/Olbers,e,44.6551,85.8416,64.4345,16.94874,0.0141253,0.93065422,10.1251,06/17.0/2026,2000,g  5.0,6.0
# From MPC191594
14P/Wolf,e,27.9190,202.0087,159.2077,4.255253,0.1122835,0.35643749,349.4403,06/17.0/2026,2000,g  5.5,12.0
# From MPC191594
15P/Finlay,e,6.7842,13.7317,347.8596,3.512063,0.1497479,0.71580779,269.7185,06/17.0/2026,2000,g 12.0,4.0
# From MPC191594
16P/Brooks,e,3.0099,138.8081,245.3687,3.663196,0.1405769,0.48519737,265.2117,06/17.0/2026,2000,g  7.5,10.0
# From MPC191594
17P/Holmes,e,19.0040,326.5959,24.5745,3.643070,0.1417434,0.42603201,275.8357,06/17.0/2026,2000,g 10.0,6.0
# From QJ 19, 80
18D/Perrine-Mrkos,e,17.663,158.451,238.166,3.87851,0.129035,0.5893704,84.778,06/17.0/2026,2000,g 16.0,4.0
# From MPC191594
19P/Borrelly,e,29.3052,74.2150,352.0188,3.608849,0.1437643,0.63750912,229.3794,06/17.0/2026,2000,g  4.5,10.0
# From MPC191594
21P/Giacobini-Zinner,e,32.0665,195.2808,172.9371,3.489993,0.1511706,0.71113586,67.8225,06/17.0/2026,2000,g  9.0,6.0
# From MPC191594
22P/Kopff,e,5.2705,119.9242,165.5259,3.303138,0.1641776,0.59598319,239.3758,06/17.0/2026,2000,g  3.0,10.4
# From MPEC 2026-L50
24P/Schaumasse,e,11.5019,78.2695,58.4870,4.057546,0.1205893,0.70819712,19.2531,06/17.0/2026,2000,g  6.5,14.0
# From MPC191594
26P/Grigg-Skjellerup,e,22.4500,211.5258,2.1081,3.013689,0.1883894,0.64092400,170.4121,06/17.0/2026,2000,g 12.0,16.0
# From MPC194198
28P/Neujmin,e,14.2863,346.4281,347.4065,6.976683,0.0534848,0.77234843,103.0287,06/17.0/2026,2000,g  8.5,6.0
# From MPEC 2026-L50
29P/Schwassmann-Wachmann,e,9.3550,312.4004,51.4966,6.058130,0.0660992,0.04288501,172.7753,06/17.0/2026,2000,g  4.0,4.0
# From MPC191595
30P/Reinmuth,e,8.0537,117.2289,9.5630,3.737205,0.1364218,0.51443088,91.2210,06/17.0/2026,2000,g  9.5,6.0
# From MPC191595
31P/Schwassmann-Wachmann,e,4.5498,114.1115,18.0680,4.228682,0.1133435,0.19372339,287.3036,06/17.0/2026,2000,g  5.0,8.0
# From MPC191595
32P/ComasSola,e,9.9166,54.5315,54.7630,4.556875,0.1013219,0.55525898,79.7648,06/17.0/2026,2000,g  6.5,8.0
# From MPC191595
33P/Daniel,e,22.2928,66.2824,20.2753,4.091657,0.1190845,0.45173178,69.4450,06/17.0/2026,2000,g 10.0,12.0
# From MPC191595
36P/Whipple,e,9.9435,181.8058,201.1835,4.142765,0.1168877,0.26767384,258.0247,06/17.0/2026,2000,g  8.5,6.0
# From MPC191595
37P/Forbes,e,8.9480,314.5404,330.0813,3.461586,0.1530352,0.53232024,93.9549,06/17.0/2026,2000,g 10.5,4.8
# From MPC191596
39P/Oterma,e,1.7238,289.0753,119.4927,6.977106,0.0534800,0.16330254,51.5714,06/17.0/2026,2000,g  7.0,6.0
# From MPEC 2026-L50
40P/Vaisala,e,11.6404,128.8994,52.0703,4.945322,0.0896215,0.63119199,19.4440,06/17.0/2026,2000,g  5.5,12.0
# From MPC191596
41P/Tuttle-Giacobini-Kresak,e,9.2166,140.9777,62.2039,3.087395,0.1816836,0.65996894,249.4102,06/17.0/2026,2000,g 10.0,16.0
# From MPC191596
42P/Neujmin,e,3.9886,150.1551,147.1135,4.879240,0.0914483,0.58403804,13.9996,06/17.0/2026,2000,g 13.0,6.0
# From MPEC 2026-L50
43P/Wolf-Harrington,e,9.3301,243.9713,223.7703,4.327042,0.1095008,0.43548675,34.6605,06/17.0/2026,2000,g  8.0,6.0
# From MPC191596
44P/Reinmuth,e,5.8956,286.4178,57.9491,3.687907,0.1391663,0.42674310,211.2262,06/17.0/2026,2000,g  8.3,6.0
# From MPC191596
45P/Honda-Mrkos-Pajdusakova,e,4.3241,87.6658,327.9690,3.056949,0.1844046,0.81740557,278.7195,06/17.0/2026,2000,g 13.5,8.0
# From MPEC 2026-GD5
47P/Ashbrook-Jackson,e,13.0400,356.8820,357.9141,4.115321,0.1180589,0.31779729,27.3921,06/17.0/2026,2000,g  1.0,11.2
# From MPC194199
48P/Johnson,e,12.2014,110.0643,216.8647,3.501179,0.1504467,0.42638902,70.8980,06/17.0/2026,2000,g 10.0,6.0
# From MPEC 2026-L50
49P/Arend-Rigaux,e,19.0597,118.7900,332.9417,3.569407,0.1461537,0.59886420,63.2000,06/17.0/2026,2000,g 11.3,4.4
# From MPC191597
50P/Arend,e,19.0999,355.1442,49.2969,4.085369,0.1193595,0.52944206,91.3824,06/17.0/2026,2000,g  9.5,6.0
# From MPC191597
51P/Harrington,e,5.4263,83.6574,269.2002,3.705365,0.1381839,0.54266965,187.3874,06/17.0/2026,2000,g 10.0,8.0
# From NK 3014
51P-A/Harrington,e,5.4261,269.2248,83.6126,3.706589,0.1381155,0.54286606,186.9377,06/17.0/2026,2000,g 10.0,8.0
# From MPC191597
52P/Harrington-Abell,e,10.2422,336.7375,139.6599,3.861520,0.1298873,0.54121632,222.6042,06/17.0/2026,2000,g 13.5,6.0
# From MPC194199
53P/VanBiesbroeck,e,6.6086,148.8477,134.3524,5.440165,0.0776758,0.55067724,288.4125,06/17.0/2026,2000,g  7.7,4.8
# From MPC191597
54P/deVico-Swift-NEAT,e,6.1037,358.0563,2.5766,3.791711,0.1334908,0.43080125,86.6552,06/17.0/2026,2000,g 10.0,6.0
# From MPC191597
56P/Slaughter-Burnham,e,8.1555,345.8634,44.2372,5.062659,0.0865239,0.50805605,312.3506,06/17.0/2026,2000,g  8.5,6.0
# From MPC191597
57P/duToit-Neujmin-Delporte,e,2.8573,188.6682,115.1611,3.438669,0.1545676,0.50246012,263.2993,06/17.0/2026,2000,g 12.5,6.0
# From MPC191597
58P/Jackson-Neujmin,e,13.0820,159.0205,200.5702,4.092542,0.1190459,0.66126156,263.5439,06/17.0/2026,2000,g 15.5,6.0
# From MPC191598
59P/Kearns-Kwee,e,9.3576,312.7262,127.7136,4.477342,0.1040336,0.47694526,293.6555,06/17.0/2026,2000,g  7.0,6.0
# From MPC191598
60P/Tsuchinshan,e,3.5797,267.3969,216.9283,3.529783,0.1486216,0.53367696,49.2503,06/17.0/2026,2000,g 11.5,6.0
# From MPC191598
61P/Shajn-Schaldach,e,5.9950,162.9505,221.7157,3.691775,0.1389477,0.42258341,185.2661,06/17.0/2026,2000,g  6.0,10.0
# From MPC191598
62P/Tsuchinshan,e,4.7354,68.6553,47.3652,3.371846,0.1591851,0.62470147,144.0039,06/17.0/2026,2000,g  8.0,10.0
# From MPEC 2026-L50
